SL-4 R/B                
1 39679U 14021B   26038.55721993  .00014916  00000+0  33866-3 0  9991
2 39679  51.6066 124.1633 0098992 353.1764   6.7866 15.38223693651632
ALOS-2                  
1 39766U 14029A   26039.23092120  .00000811  00000+0  11536-3 0  9994
2 39766  97.9212 138.2520 0001437  97.8083 262.3291 14.79498616632511
YAOGAN-29               
1 41038U 15069A   26039.17385507  .00001132  00000+0  14614-3 0  9998
2 41038  98.0176  67.5202 0002916  85.6175 274.5371 14.82963482551503
ASTRO-H (HITOMI)        
1 41337U 16012A   26038.81957104  .00004330  00000+0  25568-3 0  9990
2 41337  30.9979 189.2715 0009830  32.4118 327.7123 15.09787041547710
HXMT (HUIYAN)           
1 42758U 17034A   26038.89014653  .00007257  00000+0  36721-3 0  9998
2 42758  43.0132 182.2947 0030941  44.4005 315.9316 15.17067601478010
CZ-2C R/B               
1 43521U 18054D   26038.69652467  .00363975  52546-4  86190-3 0  9993
2 43521  35.1287 149.7633 0012571  12.4859 347.6190 15.95531930424080
SAOCOM 1A               
1 43641U 18076A   26039.19085550  .00000063  00000+0  14424-4 0  9990
2 43641  97.8869 227.7816 0001373  84.0186 276.1184 14.82155882396990
H-2A R/B                
1 43682U 18084L   26039.11681516  .00022176  00000+0  55007-3 0  9990
2 43682  98.8760 250.2131 0026322 124.8795 235.4927 15.40046664401225
SAOCOM 1B               
1 46265U 20059A   26039.15458500  .00001006  00000+0  13284-3 0  9994
2 46265  97.8867 226.8443 0001389  83.5287 276.6085 14.82166166294373
CSS (TIANHE)            
1 48274U 21035A   26039.13867593  .00020860  00000+0  26052-3 0  9991
2 48274  41.4684  27.7880 0004931  28.4388 331.6719 15.59341155272994
COSMOS 2550             
1 48865U 21056A   26039.23913079  .00008709  00000+0  27019-3 0  9994
2 48865  67.1446 130.0151 0008389 269.9517  90.0676 15.33835555258948
CZ-2C R/B               
1 52794U 22058K   26038.20889618  .00037530  00000+0  59165-3 0  9991
2 52794  50.1885 114.8234 0042336  71.3421 289.2139 15.52100302205397
