CCSDS_OMM_VERS = 2.0
CREATION_DATE  = 
ORIGINATOR     = 

OBJECT_NAME    = SL-4 R/B
OBJECT_ID      = 2014-021B
CENTER_NAME    = EARTH
REF_FRAME      = TEME
TIME_SYSTEM    = UTC
MEAN_ELEMENT_THEORY = SGP/SGP4

EPOCH          = 2026-02-07T13:22:23.801952
MEAN_MOTION    = 15.38223693
ECCENTRICITY   = .0098992
INCLINATION    = 51.6066
RA_OF_ASC_NODE = 124.1633
ARG_OF_PERICENTER = 353.1764
MEAN_ANOMALY   = 6.7866

EPHEMERIS_TYPE = 0
CLASSIFICATION_TYPE = U
NORAD_CAT_ID   = 39679
ELEMENT_SET_NO = 999
REV_AT_EPOCH   = 65163
BSTAR          = .33866E-3
MEAN_MOTION_DOT = .14916E-3
MEAN_MOTION_DDOT = 0

CCSDS_OMM_VERS = 2.0
CREATION_DATE  = 
ORIGINATOR     = 

OBJECT_NAME    = ALOS-2
OBJECT_ID      = 2014-029A
CENTER_NAME    = EARTH
REF_FRAME      = TEME
TIME_SYSTEM    = UTC
MEAN_ELEMENT_THEORY = SGP/SGP4

EPOCH          = 2026-02-08T05:32:31.591680
MEAN_MOTION    = 14.79498616
ECCENTRICITY   = .0001437
INCLINATION    = 97.9212
RA_OF_ASC_NODE = 138.2520
ARG_OF_PERICENTER = 97.8083
MEAN_ANOMALY   = 262.3291

EPHEMERIS_TYPE = 0
CLASSIFICATION_TYPE = U
NORAD_CAT_ID   = 39766
ELEMENT_SET_NO = 999
REV_AT_EPOCH   = 63251
BSTAR          = .11536E-3
MEAN_MOTION_DOT = .811E-5
MEAN_MOTION_DDOT = 0

CCSDS_OMM_VERS = 2.0
CREATION_DATE  = 
ORIGINATOR     = 

OBJECT_NAME    = YAOGAN-29
OBJECT_ID      = 2015-069A
CENTER_NAME    = EARTH
REF_FRAME      = TEME
TIME_SYSTEM    = UTC
MEAN_ELEMENT_THEORY = SGP/SGP4

EPOCH          = 2026-02-08T04:10:21.078048
MEAN_MOTION    = 14.82963482
ECCENTRICITY   = .0002916
INCLINATION    = 98.0176
RA_OF_ASC_NODE = 67.5202
ARG_OF_PERICENTER = 85.6175
MEAN_ANOMALY   = 274.5371

EPHEMERIS_TYPE = 0
CLASSIFICATION_TYPE = U
NORAD_CAT_ID   = 41038
ELEMENT_SET_NO = 999
REV_AT_EPOCH   = 55150
BSTAR          = .14614E-3
MEAN_MOTION_DOT = .1132E-4
MEAN_MOTION_DDOT = 0

CCSDS_OMM_VERS = 2.0
CREATION_DATE  = 
ORIGINATOR     = 

OBJECT_NAME    = ASTRO-H (HITOMI)
OBJECT_ID      = 2016-012A
CENTER_NAME    = EARTH
REF_FRAME      = TEME
TIME_SYSTEM    = UTC
MEAN_ELEMENT_THEORY = SGP/SGP4

EPOCH          = 2026-02-07T19:40:10.937856
MEAN_MOTION    = 15.09787041
ECCENTRICITY   = .00098309
INCLINATION    = 30.9979
RA_OF_ASC_NODE = 189.2715
ARG_OF_PERICENTER = 32.4118
MEAN_ANOMALY   = 327.7123

EPHEMERIS_TYPE = 0
CLASSIFICATION_TYPE = U
NORAD_CAT_ID   = 41337
ELEMENT_SET_NO = 999
REV_AT_EPOCH   = 54771
BSTAR          = .25567534E-3
MEAN_MOTION_DOT = .433E-4
MEAN_MOTION_DDOT = 0

CCSDS_OMM_VERS = 2.0
CREATION_DATE  = 
ORIGINATOR     = 

OBJECT_NAME    = HXMT (HUIYAN)
OBJECT_ID      = 2017-034A
CENTER_NAME    = EARTH
REF_FRAME      = TEME
TIME_SYSTEM    = UTC
MEAN_ELEMENT_THEORY = SGP/SGP4

EPOCH          = 2026-02-07T21:21:48.660192
MEAN_MOTION    = 15.17067601
ECCENTRICITY   = .0030941
INCLINATION    = 43.0132
RA_OF_ASC_NODE = 182.2947
ARG_OF_PERICENTER = 44.4005
MEAN_ANOMALY   = 315.9316

EPHEMERIS_TYPE = 0
CLASSIFICATION_TYPE = U
NORAD_CAT_ID   = 42758
ELEMENT_SET_NO = 999
REV_AT_EPOCH   = 47801
BSTAR          = .36721E-3
MEAN_MOTION_DOT = .7257E-4
MEAN_MOTION_DDOT = 0

CCSDS_OMM_VERS = 2.0
CREATION_DATE  = 
ORIGINATOR     = 

OBJECT_NAME    = CZ-2C R/B
OBJECT_ID      = 2018-054D
CENTER_NAME    = EARTH
REF_FRAME      = TEME
TIME_SYSTEM    = UTC
MEAN_ELEMENT_THEORY = SGP/SGP4

EPOCH          = 2026-02-07T16:42:59.731488
MEAN_MOTION    = 15.95531930
ECCENTRICITY   = .00125719
INCLINATION    = 35.1287
RA_OF_ASC_NODE = 149.7633
ARG_OF_PERICENTER = 12.4859
MEAN_ANOMALY   = 347.6190

EPHEMERIS_TYPE = 0
CLASSIFICATION_TYPE = U
NORAD_CAT_ID   = 43521
ELEMENT_SET_NO = 999
REV_AT_EPOCH   = 42408
BSTAR          = .86189615E-3
MEAN_MOTION_DOT = .363975E-2
MEAN_MOTION_DDOT = .52546102E-4

CCSDS_OMM_VERS = 2.0
CREATION_DATE  = 
ORIGINATOR     = 

OBJECT_NAME    = SAOCOM 1A
OBJECT_ID      = 2018-076A
CENTER_NAME    = EARTH
REF_FRAME      = TEME
TIME_SYSTEM    = UTC
MEAN_ELEMENT_THEORY = SGP/SGP4

EPOCH          = 2026-02-08T04:34:49.915200
MEAN_MOTION    = 14.82155882
ECCENTRICITY   = .0001373
INCLINATION    = 97.8869
RA_OF_ASC_NODE = 227.7816
ARG_OF_PERICENTER = 84.0186
MEAN_ANOMALY   = 276.1184

EPHEMERIS_TYPE = 0
CLASSIFICATION_TYPE = U
NORAD_CAT_ID   = 43641
ELEMENT_SET_NO = 999
REV_AT_EPOCH   = 39699
BSTAR          = .14424E-4
MEAN_MOTION_DOT = .63E-6
MEAN_MOTION_DDOT = 0

CCSDS_OMM_VERS = 2.0
CREATION_DATE  = 
ORIGINATOR     = 

OBJECT_NAME    = H-2A R/B
OBJECT_ID      = 2018-084L
CENTER_NAME    = EARTH
REF_FRAME      = TEME
TIME_SYSTEM    = UTC
MEAN_ELEMENT_THEORY = SGP/SGP4

EPOCH          = 2026-02-08T02:48:12.829824
MEAN_MOTION    = 15.40046664
ECCENTRICITY   = .0026322
INCLINATION    = 98.8760
RA_OF_ASC_NODE = 250.2131
ARG_OF_PERICENTER = 124.8795
MEAN_ANOMALY   = 235.4927

EPHEMERIS_TYPE = 0
CLASSIFICATION_TYPE = U
NORAD_CAT_ID   = 43682
ELEMENT_SET_NO = 999
REV_AT_EPOCH   = 40122
BSTAR          = .55007E-3
MEAN_MOTION_DOT = .22176E-3
MEAN_MOTION_DDOT = 0

CCSDS_OMM_VERS = 2.0
CREATION_DATE  = 
ORIGINATOR     = 

OBJECT_NAME    = SAOCOM 1B
OBJECT_ID      = 2020-059A
CENTER_NAME    = EARTH
REF_FRAME      = TEME
TIME_SYSTEM    = UTC
MEAN_ELEMENT_THEORY = SGP/SGP4

EPOCH          = 2026-02-08T03:42:36.144000
MEAN_MOTION    = 14.82166166
ECCENTRICITY   = .0001389
INCLINATION    = 97.8867
RA_OF_ASC_NODE = 226.8443
ARG_OF_PERICENTER = 83.5287
MEAN_ANOMALY   = 276.6085

EPHEMERIS_TYPE = 0
CLASSIFICATION_TYPE = U
NORAD_CAT_ID   = 46265
ELEMENT_SET_NO = 999
REV_AT_EPOCH   = 29437
BSTAR          = .13284E-3
MEAN_MOTION_DOT = .1006E-4
MEAN_MOTION_DDOT = 0

CCSDS_OMM_VERS = 2.0
CREATION_DATE  = 
ORIGINATOR     = 

OBJECT_NAME    = CSS (TIANHE)
OBJECT_ID      = 2021-035A
CENTER_NAME    = EARTH
REF_FRAME      = TEME
TIME_SYSTEM    = UTC
MEAN_ELEMENT_THEORY = SGP/SGP4

EPOCH          = 2026-02-08T03:19:41.600352
MEAN_MOTION    = 15.59341155
ECCENTRICITY   = .0004931
INCLINATION    = 41.4684
RA_OF_ASC_NODE = 27.7880
ARG_OF_PERICENTER = 28.4388
MEAN_ANOMALY   = 331.6719

EPHEMERIS_TYPE = 0
CLASSIFICATION_TYPE = U
NORAD_CAT_ID   = 48274
ELEMENT_SET_NO = 999
REV_AT_EPOCH   = 27299
BSTAR          = .26052E-3
MEAN_MOTION_DOT = .2086E-3
MEAN_MOTION_DDOT = 0

CCSDS_OMM_VERS = 2.0
CREATION_DATE  = 
ORIGINATOR     = 

OBJECT_NAME    = COSMOS 2550
OBJECT_ID      = 2021-056A
CENTER_NAME    = EARTH
REF_FRAME      = TEME
TIME_SYSTEM    = UTC
MEAN_ELEMENT_THEORY = SGP/SGP4

EPOCH          = 2026-02-08T05:44:20.900256
MEAN_MOTION    = 15.33835555
ECCENTRICITY   = .0008389
INCLINATION    = 67.1446
RA_OF_ASC_NODE = 130.0151
ARG_OF_PERICENTER = 269.9517
MEAN_ANOMALY   = 90.0676

EPHEMERIS_TYPE = 0
CLASSIFICATION_TYPE = U
NORAD_CAT_ID   = 48865
ELEMENT_SET_NO = 999
REV_AT_EPOCH   = 25894
BSTAR          = .27019E-3
MEAN_MOTION_DOT = .8709E-4
MEAN_MOTION_DDOT = 0

CCSDS_OMM_VERS = 2.0
CREATION_DATE  = 
ORIGINATOR     = 

OBJECT_NAME    = CZ-2C R/B
OBJECT_ID      = 2022-058K
CENTER_NAME    = EARTH
REF_FRAME      = TEME
TIME_SYSTEM    = UTC
MEAN_ELEMENT_THEORY = SGP/SGP4

EPOCH          = 2026-02-07T05:00:48.629952
MEAN_MOTION    = 15.52100302
ECCENTRICITY   = .00423363
INCLINATION    = 50.1885
RA_OF_ASC_NODE = 114.8234
ARG_OF_PERICENTER = 71.3421
MEAN_ANOMALY   = 289.2139

EPHEMERIS_TYPE = 0
CLASSIFICATION_TYPE = U
NORAD_CAT_ID   = 52794
ELEMENT_SET_NO = 999
REV_AT_EPOCH   = 20539
BSTAR          = .59165059E-3
MEAN_MOTION_DOT = .3753E-3
MEAN_MOTION_DDOT = 0

